0 FENGYUN 1C DEB
1 30533U 99025AJX 13281.62004767  .00002478  00000-0  12345-2 0  7633
2 30533 099.0186 301.3107 0148540 008.2983 114.8730 14.12307909345468
0 FENGYUN 1C DEB
1 30533U 99025AJX 13282.81033095  .00002924  00000-0  14525-2 0  7640
2 30533 099.0187 302.5087 0148446 004.9087 046.6958 14.12318893345628
0 FENGYUN 1C DEB
1 30533U 99025AJX 13284.01691252  .00003645  00000-0  18051-2 0  7659
2 30533 099.0185 303.7231 0148388 001.4846 061.4105 14.12324133345803
0 FENGYUN 1C DEB
1 30533U 99025AJX 13285.86286091  .00002898  00000-0  14397-2 0  7663
2 30533 099.0182 305.5813 0148313 356.2552 086.9517 14.12335867346063
0 FENGYUN 1C DEB
1 30533U 99025AJX 13287.05404304  .00003259  00000-0  16164-2 0  7672
2 30533 099.0179 306.7807 0148254 352.8815 023.4398 14.12341468346228
0 FENGYUN 1C DEB
1 30533U 99025AJX 13288.34890847  .00004313  00000-0  21312-2 0  7680
2 30533 099.0174 308.0845 0148180 349.2019 127.1466 14.12353060346414
0 FENGYUN 1C DEB
1 30533U 99025AJX 13289.75513039  .00004364  00000-0  21563-2 0  7696
2 30533 099.0171 309.4996 0148135 345.2250 077.0801 14.12361814346610
0 FENGYUN 1C DEB
1 30533U 99025AJX 13291.02360309  .00003573  00000-0  17692-2 0  7700
2 30533 099.0166 310.7763 0148085 341.5975 046.7056 14.12370425346789
0 FENGYUN 1C DEB
1 30533U 99025AJX 13292.31614749  .00003711  00000-0  18365-2 0  7716
2 30533 099.0166 312.0771 0148046 337.9054 138.7610 14.12377947346972
0 FENGYUN 1C DEB
1 30533U 99025AJX 13293.52982280  .00004062  00000-0  20080-2 0  7726
2 30533 099.0167 313.2986 0148029 334.4517 189.8190 14.12386300347144
0 FENGYUN 1C DEB
1 30533U 99025AJX 13294.78314852  .00004475  00000-0  22095-2 0  7736
2 30533 099.0169 314.5600 0148009 330.8982 082.5108 14.12394711347319
